[{"OBJECT_NAME":"BANDWAGON-2 OBJECT D","OBJECT_ID":"2024-247D","EPOCH":"2026-03-09T12:32:33.670752","MEAN_MOTION":15.29076102,"ECCENTRICITY":0.00034883,"INCLINATION":44.9954,"RA_OF_ASC_NODE":115.671,"ARG_OF_PERICENTER":351.1453,"MEAN_ANOMALY":8.9368,"EPHEMERIS_TYPE":0,"CLASSIFICATION_TYPE":"U","NORAD_CAT_ID":62380,"ELEMENT_SET_NO":999,"REV_AT_EPOCH":6773,"BSTAR":0.00040119131,"MEAN_MOTION_DOT":0.00011259,"MEAN_MOTION_DDOT":0},{"OBJECT_NAME":"STARLINK-35280","OBJECT_ID":"2025-232W","EPOCH":"2026-03-09T18:47:31.049664","MEAN_MOTION":15.30199526,"ECCENTRICITY":0.00013417,"INCLINATION":53.1572,"RA_OF_ASC_NODE":103.2014,"ARG_OF_PERICENTER":73.6624,"MEAN_ANOMALY":286.4525,"EPHEMERIS_TYPE":0,"CLASSIFICATION_TYPE":"U","NORAD_CAT_ID":66025,"ELEMENT_SET_NO":999,"REV_AT_EPOCH":2345,"BSTAR":0.00025835922,"MEAN_MOTION_DOT":7.3e-5,"MEAN_MOTION_DDOT":0}]
